{
    "links": {
        "self": "http://www.neowsapp.com/rest/v1/neo/3838877?api_key=iIulBulltgU6a56xZRHN4H3l9WmuAYTsLGpBGhQ2"
    },
    "id": "3838877",
    "neo_reference_id": "3838877",
    "name": "(2019 EJ)",
    "designation": "2019 EJ",
    "nasa_jpl_url": "http://ssd.jpl.nasa.gov/sbdb.cgi?sstr=3838877",
    "absolute_magnitude_h": 24.6,
    "estimated_diameter": {
        "kilometers": {
            "estimated_diameter_min": 0.0319561887,
            "estimated_diameter_max": 0.0714562102
        },
        "meters": {
            "estimated_diameter_min": 31.9561886721,
            "estimated_diameter_max": 71.4562101727
        },
        "miles": {
            "estimated_diameter_min": 0.0198566489,
            "estimated_diameter_max": 0.0444008168
        },
        "feet": {
            "estimated_diameter_min": 104.8431420431,
            "estimated_diameter_max": 234.436392583
        }
    },
    "is_potentially_hazardous_asteroid": false,
    "close_approach_data": [
        {
            "close_approach_date": "2019-02-23",
            "close_approach_date_full": "2019-Feb-23 05:13",
            "epoch_date_close_approach": 1550898780000,
            "relative_velocity": {
                "kilometers_per_second": "7.1577659467",
                "kilometers_per_hour": "25767.9574081923",
                "miles_per_hour": "16011.2066462181"
            },
            "miss_distance": {
                "astronomical": "0.0287127276",
                "lunar": "11.1692510364",
                "kilometers": "4295362.890850212",
                "miles": "2669014.7365164456"
            },
            "orbiting_body": "Earth"
        },
        {
            "close_approach_date": "2108-04-03",
            "close_approach_date_full": "2108-Apr-03 02:14",
            "epoch_date_close_approach": 4362862440000,
            "relative_velocity": {
                "kilometers_per_second": "15.5694577367",
                "kilometers_per_hour": "56050.0478521315",
                "miles_per_hour": "34827.3200112314"
            },
            "miss_distance": {
                "astronomical": "0.278392689",
                "lunar": "108.294756021",
                "kilometers": "41646953.29797243",
                "miles": "25878216.790502334"
            },
            "orbiting_body": "Earth"
        },
        {
            "close_approach_date": "2110-12-20",
            "close_approach_date_full": "2110-Dec-20 08:17",
            "epoch_date_close_approach": 4448506620000,
            "relative_velocity": {
                "kilometers_per_second": "20.1545785386",
                "kilometers_per_hour": "72556.4827391198",
                "miles_per_hour": "45083.7767330937"
            },
            "miss_distance": {
                "astronomical": "0.4432488978",
                "lunar": "172.4238212442",
                "kilometers": "66309090.990727686",
                "miles": "41202558.5536106268"
            },
            "orbiting_body": "Earth"
        }
    ],
    "orbital_data": {
        "orbit_id": "10",
        "orbit_determination_date": "2019-04-06 07:23:49",
        "first_observation_date": "2019-03-01",
        "last_observation_date": "2019-04-03",
        "data_arc_in_days": 33,
        "observations_used": 63,
        "orbit_uncertainty": "7",
        "minimum_orbit_intersection": ".0259719",
        "jupiter_tisserand_invariant": "3.642",
        "epoch_osculation": "2459000.5",
        "eccentricity": ".5077366499255063",
        "semi_major_axis": "2.022881090112887",
        "inclination": "5.034264478025962",
        "ascending_node_longitude": "169.363443793219",
        "orbital_period": "1050.882013347104",
        "perihelion_distance": ".9957902222213135",
        "perihelion_argument": "332.1061732621272",
        "aphelion_distance": "3.04997195800446",
        "perihelion_time": "2458527.446047314582",
        "mean_anomaly": "162.053799383567",
        "mean_motion": ".3425693802231753",
        "equinox": "J2000",
        "orbit_class": {
            "orbit_class_type": "APO",
            "orbit_class_description": "Near-Earth asteroid orbits which cross the Earth’s orbit similar to that of 1862 Apollo",
            "orbit_class_range": "a (semi-major axis) > 1.0 AU; q (perihelion) < 1.017 AU"
        }
    },
    "is_sentry_object": false
}